STARLINK-32588          
1 61866U 24202X   25179.46133692 -.00000439  00000+0 -64204-5 0  9993
2 61866  43.0024 233.9995 0001778 277.4708  82.5942 15.27574138 36451
STARLINK-32569          
1 61867U 24202Y   25179.21007192  .00000142  00000+0  14679-4 0  9991
2 61867  43.0037 235.5537 0001399 274.1707  85.8985 15.27573597 36415
STARLINK-11402 [DTC]    
1 61874U 24204A   25179.67230715 -.00000012  00000+0  47615-5 0  9994
2 61874  53.1590 168.8443 0001046  89.4079 270.7059 15.69706842 37012
STARLINK-11316 [DTC]    
1 61875U 24204B   25179.16775431 -.00000166  00000+0  34894-5 0  9993
2 61875  53.1597 170.6339 0000881  75.0132 285.0984 15.69706863 36942
STARLINK-11401 [DTC]    
1 61876U 24204C   25179.22171673 -.00000269  00000+0  26371-5 0  9994
2 61876  53.1596 170.9912 0001241  70.0284 290.0867 15.69709024 36944
STARLINK-11321 [DTC]    
1 61877U 24204D   25179.21680807 -.00000831  00000+0 -19965-5 0  9995
2 61877  53.1595 170.9539 0001247  90.3838 269.7323 15.69709759 36939
STARLINK-11314 [DTC]    
1 61878U 24204E   25179.40291720 -.00001321  00000+0 -60416-5 0  9991
2 61878  53.1594 169.9817 0001393  58.1658 301.9495 15.69701720 36973
STARLINK-11324 [DTC]    
1 61879U 24204F   25179.20699228 -.00000998  00000+0 -33718-5 0  9999
2 61879  53.1599 170.8889 0001725  99.7616 260.3596 15.69715787 36948
STARLINK-11328 [DTC]    
1 61880U 24204G   25179.26575525  .00000477  00000+0  87902-5 0  9994
2 61880  53.1594 170.5431 0001077  84.5480 275.5660 15.69713159 36958
STARLINK-11329 [DTC]    
1 61881U 24204H   25179.26085637 -.00000744  00000+0 -12896-5 0  9994
2 61881  53.1584 170.5090 0000775  76.4630 283.6474 15.69706695 36950
STARLINK-11398 [DTC]    
1 61882U 24204J   25179.70163686  .00000181  00000+0  63534-5 0  9993
2 61882  53.1595 168.2802 0001106  79.9357 280.1785 15.69705658 37025
STARLINK-11383 [DTC]    
1 61883U 24204K   25179.69182896 -.00000766  00000+0 -14683-5 0  9998
2 61883  53.1587 168.2152 0000978  69.0200 291.0923 15.69700701 37027
STARLINK-11359 [DTC]    
1 61884U 24204L   25179.25103909  .00000601  00000+0  98145-5 0  9990
2 61884  53.1587 170.4432 0001091 101.5502 258.5638 15.69711314 36952
STARLINK-11301 [DTC]    
1 61885U 24204M   25179.68691829 -.00000231  00000+0  29538-5 0  9991
2 61885  53.1601 168.1811 0001148  88.1599 271.9550 15.69708186 37028
