[
  {
    "OBJECT_NAME": "STARLINK-32588",
    "OBJECT_ID": "2024-202X",
    "EPOCH": "2025-06-28T11:04:19.509888",
    "MEAN_MOTION": 15.27574138,
    "ECCENTRICITY": 0.0001778,
    "INCLINATION": 43.0024,
    "RA_OF_ASC_NODE": 233.9995,
    "ARG_OF_PERICENTER": 277.4708,
    "MEAN_ANOMALY": 82.5942,
    "EPHEMERIS_TYPE": 0,
    "CLASSIFICATION_TYPE": "U",
    "NORAD_CAT_ID": 61866,
    "ELEMENT_SET_NO": 999,
    "REV_AT_EPOCH": 3645,
    "BSTAR": -6.4204e-06,
    "MEAN_MOTION_DOT": -4.39e-06,
    "MEAN_MOTION_DDOT": 0
  },
  {
    "OBJECT_NAME": "STARLINK-32569",
    "OBJECT_ID": "2024-202Y",
    "EPOCH": "2025-06-28T05:02:30.213888",
    "MEAN_MOTION": 15.27573597,
    "ECCENTRICITY": 0.0001399,
    "INCLINATION": 43.0037,
    "RA_OF_ASC_NODE": 235.5537,
    "ARG_OF_PERICENTER": 274.1707,
    "MEAN_ANOMALY": 85.8985,
    "EPHEMERIS_TYPE": 0,
    "CLASSIFICATION_TYPE": "U",
    "NORAD_CAT_ID": 61867,
    "ELEMENT_SET_NO": 999,
    "REV_AT_EPOCH": 3641,
    "BSTAR": 1.4679e-05,
    "MEAN_MOTION_DOT": 1.42e-06,
    "MEAN_MOTION_DDOT": 0
  },
  {
    "OBJECT_NAME": "STARLINK-11402 [DTC]",
    "OBJECT_ID": "2024-204A",
    "EPOCH": "2025-06-28T16:08:07.337760",
    "MEAN_MOTION": 15.69706842,
    "ECCENTRICITY": 0.0001046,
    "INCLINATION": 53.159,
    "RA_OF_ASC_NODE": 168.8443,
    "ARG_OF_PERICENTER": 89.4079,
    "MEAN_ANOMALY": 270.7059,
    "EPHEMERIS_TYPE": 0,
    "CLASSIFICATION_TYPE": "U",
    "NORAD_CAT_ID": 61874,
    "ELEMENT_SET_NO": 999,
    "REV_AT_EPOCH": 3701,
    "BSTAR": 4.7615e-06,
    "MEAN_MOTION_DOT": -1.2e-07,
    "MEAN_MOTION_DDOT": 0
  },
  {
    "OBJECT_NAME": "STARLINK-11316 [DTC]",
    "OBJECT_ID": "2024-204B",
    "EPOCH": "2025-06-28T04:01:33.972384",
    "MEAN_MOTION": 15.69706863,
    "ECCENTRICITY": 8.81e-05,
    "INCLINATION": 53.1597,
    "RA_OF_ASC_NODE": 170.6339,
    "ARG_OF_PERICENTER": 75.0132,
    "MEAN_ANOMALY": 285.0984,
    "EPHEMERIS_TYPE": 0,
    "CLASSIFICATION_TYPE": "U",
    "NORAD_CAT_ID": 61875,
    "ELEMENT_SET_NO": 999,
    "REV_AT_EPOCH": 3694,
    "BSTAR": 3.4894e-06,
    "MEAN_MOTION_DOT": -1.66e-06,
    "MEAN_MOTION_DDOT": 0
  },
  {
    "OBJECT_NAME": "STARLINK-11401 [DTC]",
    "OBJECT_ID": "2024-204C",
    "EPOCH": "2025-06-28T05:19:16.325472",
    "MEAN_MOTION": 15.69709024,
    "ECCENTRICITY": 0.0001241,
    "INCLINATION": 53.1596,
    "RA_OF_ASC_NODE": 170.9912,
    "ARG_OF_PERICENTER": 70.0284,
    "MEAN_ANOMALY": 290.0867,
    "EPHEMERIS_TYPE": 0,
    "CLASSIFICATION_TYPE": "U",
    "NORAD_CAT_ID": 61876,
    "ELEMENT_SET_NO": 999,
    "REV_AT_EPOCH": 3694,
    "BSTAR": 2.6371e-06,
    "MEAN_MOTION_DOT": -2.69e-06,
    "MEAN_MOTION_DDOT": 0
  },
  {
    "OBJECT_NAME": "STARLINK-11321 [DTC]",
    "OBJECT_ID": "2024-204D",
    "EPOCH": "2025-06-28T05:12:12.217248",
    "MEAN_MOTION": 15.69709759,
    "ECCENTRICITY": 0.0001247,
    "INCLINATION": 53.1595,
    "RA_OF_ASC_NODE": 170.9539,
    "ARG_OF_PERICENTER": 90.3838,
    "MEAN_ANOMALY": 269.7323,
    "EPHEMERIS_TYPE": 0,
    "CLASSIFICATION_TYPE": "U",
    "NORAD_CAT_ID": 61877,
    "ELEMENT_SET_NO": 999,
    "REV_AT_EPOCH": 3693,
    "BSTAR": -1.9965e-06,
    "MEAN_MOTION_DOT": -8.31e-06,
    "MEAN_MOTION_DDOT": 0
  },
  {
    "OBJECT_NAME": "STARLINK-11314 [DTC]",
    "OBJECT_ID": "2024-204E",
    "EPOCH": "2025-06-28T09:40:12.046080",
    "MEAN_MOTION": 15.6970172,
    "ECCENTRICITY": 0.0001393,
    "INCLINATION": 53.1594,
    "RA_OF_ASC_NODE": 169.9817,
    "ARG_OF_PERICENTER": 58.1658,
    "MEAN_ANOMALY": 301.9495,
    "EPHEMERIS_TYPE": 0,
    "CLASSIFICATION_TYPE": "U",
    "NORAD_CAT_ID": 61878,
    "ELEMENT_SET_NO": 999,
    "REV_AT_EPOCH": 3697,
    "BSTAR": -6.0416e-06,
    "MEAN_MOTION_DOT": -1.321e-05,
    "MEAN_MOTION_DDOT": 0
  },
  {
    "OBJECT_NAME": "STARLINK-11324 [DTC]",
    "OBJECT_ID": "2024-204F",
    "EPOCH": "2025-06-28T04:58:04.132992",
    "MEAN_MOTION": 15.69715787,
    "ECCENTRICITY": 0.0001725,
    "INCLINATION": 53.1599,
    "RA_OF_ASC_NODE": 170.8889,
    "ARG_OF_PERICENTER": 99.7616,
    "MEAN_ANOMALY": 260.3596,
    "EPHEMERIS_TYPE": 0,
    "CLASSIFICATION_TYPE": "U",
    "NORAD_CAT_ID": 61879,
    "ELEMENT_SET_NO": 999,
    "REV_AT_EPOCH": 3694,
    "BSTAR": -3.3718e-06,
    "MEAN_MOTION_DOT": -9.98e-06,
    "MEAN_MOTION_DDOT": 0
  },
  {
    "OBJECT_NAME": "STARLINK-11328 [DTC]",
    "OBJECT_ID": "2024-204G",
    "EPOCH": "2025-06-28T06:22:41.253600",
    "MEAN_MOTION": 15.69713159,
    "ECCENTRICITY": 0.0001077,
    "INCLINATION": 53.1594,
    "RA_OF_ASC_NODE": 170.5431,
    "ARG_OF_PERICENTER": 84.548,
    "MEAN_ANOMALY": 275.566,
    "EPHEMERIS_TYPE": 0,
    "CLASSIFICATION_TYPE": "U",
    "NORAD_CAT_ID": 61880,
    "ELEMENT_SET_NO": 999,
    "REV_AT_EPOCH": 3695,
    "BSTAR": 8.7902e-06,
    "MEAN_MOTION_DOT": 4.77e-06,
    "MEAN_MOTION_DDOT": 0
  },
  {
    "OBJECT_NAME": "STARLINK-11329 [DTC]",
    "OBJECT_ID": "2024-204H",
    "EPOCH": "2025-06-28T06:15:37.990368",
    "MEAN_MOTION": 15.69706695,
    "ECCENTRICITY": 7.75e-05,
    "INCLINATION": 53.1584,
    "RA_OF_ASC_NODE": 170.509,
    "ARG_OF_PERICENTER": 76.463,
    "MEAN_ANOMALY": 283.6474,
    "EPHEMERIS_TYPE": 0,
    "CLASSIFICATION_TYPE": "U",
    "NORAD_CAT_ID": 61881,
    "ELEMENT_SET_NO": 999,
    "REV_AT_EPOCH": 3695,
    "BSTAR": -1.2896e-06,
    "MEAN_MOTION_DOT": -7.44e-06,
    "MEAN_MOTION_DDOT": 0
  },
  {
    "OBJECT_NAME": "STARLINK-11398 [DTC]",
    "OBJECT_ID": "2024-204J",
    "EPOCH": "2025-06-28T16:50:21.424704",
    "MEAN_MOTION": 15.69705658,
    "ECCENTRICITY": 0.0001106,
    "INCLINATION": 53.1595,
    "RA_OF_ASC_NODE": 168.2802,
    "ARG_OF_PERICENTER": 79.9357,
    "MEAN_ANOMALY": 280.1785,
    "EPHEMERIS_TYPE": 0,
    "CLASSIFICATION_TYPE": "U",
    "NORAD_CAT_ID": 61882,
    "ELEMENT_SET_NO": 999,
    "REV_AT_EPOCH": 3702,
    "BSTAR": 6.3534e-06,
    "MEAN_MOTION_DOT": 1.81e-06,
    "MEAN_MOTION_DDOT": 0
  },
  {
    "OBJECT_NAME": "STARLINK-11383 [DTC]",
    "OBJECT_ID": "2024-204K",
    "EPOCH": "2025-06-28T16:36:14.022144",
    "MEAN_MOTION": 15.69700701,
    "ECCENTRICITY": 9.78e-05,
    "INCLINATION": 53.1587,
    "RA_OF_ASC_NODE": 168.2152,
    "ARG_OF_PERICENTER": 69.02,
    "MEAN_ANOMALY": 291.0923,
    "EPHEMERIS_TYPE": 0,
    "CLASSIFICATION_TYPE": "U",
    "NORAD_CAT_ID": 61883,
    "ELEMENT_SET_NO": 999,
    "REV_AT_EPOCH": 3702,
    "BSTAR": -1.4683e-06,
    "MEAN_MOTION_DOT": -7.66e-06,
    "MEAN_MOTION_DDOT": 0
  },
  {
    "OBJECT_NAME": "STARLINK-11359 [DTC]",
    "OBJECT_ID": "2024-204L",
    "EPOCH": "2025-06-28T06:01:29.777376",
    "MEAN_MOTION": 15.69711314,
    "ECCENTRICITY": 0.0001091,
    "INCLINATION": 53.1587,
    "RA_OF_ASC_NODE": 170.4432,
    "ARG_OF_PERICENTER": 101.5502,
    "MEAN_ANOMALY": 258.5638,
    "EPHEMERIS_TYPE": 0,
    "CLASSIFICATION_TYPE": "U",
    "NORAD_CAT_ID": 61884,
    "ELEMENT_SET_NO": 999,
    "REV_AT_EPOCH": 3695,
    "BSTAR": 9.8145e-06,
    "MEAN_MOTION_DOT": 6.01e-06,
    "MEAN_MOTION_DDOT": 0
  },
  {
    "OBJECT_NAME": "STARLINK-11301 [DTC]",
    "OBJECT_ID": "2024-204M",
    "EPOCH": "2025-06-28T16:29:09.740256",
    "MEAN_MOTION": 15.69708186,
    "ECCENTRICITY": 0.0001148,
    "INCLINATION": 53.1601,
    "RA_OF_ASC_NODE": 168.1811,
    "ARG_OF_PERICENTER": 88.1599,
    "MEAN_ANOMALY": 271.955,
    "EPHEMERIS_TYPE": 0,
    "CLASSIFICATION_TYPE": "U",
    "NORAD_CAT_ID": 61885,
    "ELEMENT_SET_NO": 999,
    "REV_AT_EPOCH": 3702,
    "BSTAR": 2.9538e-06,
    "MEAN_MOTION_DOT": -2.31e-06,
    "MEAN_MOTION_DDOT": 0
  }
]